NORAD_CAT_ID,OBJECT_NAME,OBJECT_TYPE,EPOCH,MEAN_MOTION,ECCENTRICITY,INCLINATION,RA_OF_ASC_NODE,ARG_OF_PERICENTER,MEAN_ANOMALY,BSTAR,MEAN_MOTION_DOT,MEAN_MOTION_DDOT,TLE_LINE0,TLE_LINE1,TLE_LINE2,SEMIMAJOR_AXIS,PERIOD,APOGEE,PERIGEE,DECAYED
51810.0,STARLINK-3613,PAYLOAD,2023-05-24 15:19:49,15.0884379,0.0001172,53.2163,228.5255,83.6562,276.4564,0.00010883,1.445e-05,0.0,0 STARLINK-3613,1 51810U 22017AU  23144.63876718  .00001445  00000-0  10883-3 0  9994,2 51810  53.2163 228.5255 0001172  83.6562 276.4564 15.08843790 70081,6917.869,95.437,540.545,538.923,0.0
51810.0,STARLINK-3613,PAYLOAD,2023-05-26 11:50:37,15.08841005,0.0001279,53.216,220.198,107.0166,253.0966,-9.0942e-06,-4.33e-06,0.0,0 STARLINK-3613,1 51810U 22017AU  23146.49349107 -.00000433  00000-0 -90942-5 0  9991,2 51810  53.2160 220.1980 0001279 107.0166 253.0966 15.08841005 70365,6917.877,95.437,540.627,538.858,0.0
51810.0,STARLINK-3613,PAYLOAD,2023-05-27 11:41:24,15.08837197,0.0001084,53.2157,215.7394,92.5932,267.5184,1.4902e-05,-5.1e-07,0.0,0 STARLINK-3613,1 51810U 22017AU  23147.48709411 -.00000051  00000-0  14902-4 0  9995,2 51810  53.2157 215.7394 0001084  92.5932 267.5184 15.08837197 70632,6917.889,95.438,540.504,539.004,0.0
51810.0,STARLINK-3613,PAYLOAD,2023-05-27 21:13:43,15.0883589,0.0001073,53.2156,213.9553,90.6005,269.511,1.8554e-05,7e-08,0.0,0 STARLINK-3613,1 51810U 22017AU  23147.88453560  .00000007  00000-0  18554-4 0  9997,2 51810  53.2156 213.9553 0001073  90.6005 269.5110 15.08835890 70578,6917.893,95.438,540.5,539.016,0.0
51810.0,STARLINK-3613,PAYLOAD,2023-05-28 21:04:30,15.08837057,0.0001082,53.2157,209.4947,86.8066,273.3049,5.6296e-05,6.08e-06,0.0,0 STARLINK-3613,1 51810U 22017AU  23148.87813648  .00000608  00000-0  56296-4 0  9996,2 51810  53.2157 209.4947 0001082  86.8066 273.3049 15.08837057 70728,6917.889,95.438,540.503,539.006,0.0
51810.0,STARLINK-3613,PAYLOAD,2023-05-28 22:39:54,15.08836849,0.000108,53.2157,209.1973,86.3957,273.7158,6.314e-05,7.17e-06,0.0,0 STARLINK-3613,1 51810U 22017AU  23148.94437656  .00000717  00000-0  63140-4 0  9992,2 51810  53.2157 209.1973 0001080  86.3957 273.7158 15.08836849 70853,6917.89,95.438,540.502,539.008,0.0
51810.0,STARLINK-3613,PAYLOAD,2023-05-29 12:58:22,15.08841727,0.0001102,53.2156,206.5209,85.7185,274.3933,7.4299e-05,8.95e-06,0.0,0 STARLINK-3613,1 51810U 22017AU  23149.54053384  .00000895  00000-0  74299-4 0  9995,2 51810  53.2156 206.5209 0001102  85.7185 274.3933 15.08841727 70822,6917.875,95.437,540.502,538.978,0.0
51810.0,STARLINK-3613,PAYLOAD,2023-05-29 20:55:18,15.08836492,0.0001167,53.2151,205.0332,80.2133,279.8991,-1.1282e-05,-4.67e-06,0.0,0 STARLINK-3613,1 51810U 22017AU  23149.87174015 -.00000467  00000-0 -11282-4 0  9996,2 51810  53.2151 205.0332 0001167  80.2133 279.8991 15.08836492 70874,6917.891,95.438,540.563,538.949,0.0
51810.0,STARLINK-3613,PAYLOAD,2023-05-30 03:16:51,15.08832324,0.0001049,53.2145,203.843,79.4331,280.678,3.3718e-05,2.49e-06,0.0,0 STARLINK-3613,1 51810U 22017AU  23150.13670165  .00000249  00000-0  33718-4 0  9998,2 51810  53.2145 203.8430 0001049  79.4331 280.6780 15.08832324 71036,6917.904,95.438,540.495,539.043,0.0
51810.0,STARLINK-3613,PAYLOAD,2023-05-30 11:13:46,15.08836196,0.0001183,53.215,202.3566,79.8776,280.2349,1.2482e-05,-8.9e-07,0.0,0 STARLINK-3613,1 51810U 22017AU  23150.46790158 -.00000089  00000-0  12482-4 0  9997,2 51810  53.2150 202.3566 0001183  79.8776 280.2349 15.08836196 70961,6917.892,95.438,540.575,538.939,0.0
51810.0,STARLINK-3613,PAYLOAD,2023-05-30 20:46:05,15.08840377,0.0001189,53.2151,200.5726,79.4328,280.6798,4.1968e-05,3.8e-06,0.0,0 STARLINK-3613,1 51810U 22017AU  23150.86533822  .00000380  00000-0  41968-4 0  9998,2 51810  53.2151 200.5726 0001189  79.4328 280.6798 15.08840377 71021,6917.879,95.438,540.567,538.922,0.0
51810.0,STARLINK-3613,PAYLOAD,2023-05-31 03:07:37,15.08843193,0.0001161,53.2153,199.383,79.1848,280.9275,6.0219e-05,6.71e-06,0.0,0 STARLINK-3613,1 51810U 22017AU  23151.13029546  .00000671  00000-0  60219-4 0  9995,2 51810  53.2153 199.3830 0001161  79.1848 280.9275 15.08843193 71187,6917.871,95.437,540.539,538.932,0.0
51810.0,STARLINK-3613,PAYLOAD,2023-05-31 09:29:09,15.08845776,0.000119,53.2152,198.1939,77.6724,282.4402,7.8184e-05,9.57e-06,0.0,0 STARLINK-3613,1 51810U 22017AU  23151.39525274  .00000957  00000-0  78184-4 0  9999,2 51810  53.2152 198.1939 0001190  77.6724 282.4402 15.08845776 71101,6917.863,95.437,540.551,538.905,0.0
51810.0,STARLINK-3613,PAYLOAD,2023-05-31 20:36:51,15.08844696,0.0001151,53.2154,196.1128,77.2607,282.8514,3.8767e-05,3.29e-06,0.0,0 STARLINK-3613,1 51810U 22017AU  23151.85893311  .00000329  00000-0  38767-4 0  9996,2 51810  53.2154 196.1128 0001151  77.2607 282.8514 15.08844696 71179,6917.866,95.437,540.527,538.935,0.0
51810.0,STARLINK-3613,PAYLOAD,2023-06-01 09:19:57,15.08838144,0.0001277,53.2159,193.7341,74.1643,285.949,3.5554e-05,2.78e-06,0.0,0 STARLINK-3613,1 51810U 22017AU  23152.38885809  .00000278  00000-0  35554-4 0  9992,2 51810  53.2159 193.7341 0001277  74.1643 285.9490 15.08838144 71256,6917.886,95.438,540.634,538.868,0.0
51810.0,STARLINK-3613,PAYLOAD,2023-06-02 09:10:44,15.08839596,0.0001247,53.2158,189.2743,81.3415,278.7718,-2.4657e-05,-6.8e-06,0.0,0 STARLINK-3613,1 51810U 22017AU  23153.38245816 -.00000680  00000-0 -24657-4 0  9992,2 51810  53.2158 189.2743 0001247  81.3415 278.7718 15.08839596 71407,6917.882,95.438,540.609,538.884,0.0
51810.0,STARLINK-3613,PAYLOAD,2023-06-03 02:39:59,15.08835612,0.00012,53.2154,186.0015,88.9641,271.1489,4.6913e-06,-2.13e-06,0.0,0 STARLINK-3613,1 51810U 22017AU  23154.11109982 -.00000213  00000-0  46913-5 0  9998,2 51810  53.2154 186.0015 0001200  88.9641 271.1489 15.08835612 71635,6917.894,95.438,540.589,538.929,0.0
51810.0,STARLINK-3613,PAYLOAD,2023-06-03 07:26:08,15.08834696,0.000118,53.2153,185.1088,92.5471,267.5656,-2.4875e-06,-3.27e-06,0.0,0 STARLINK-3613,1 51810U 22017AU  23154.30982121 -.00000327  00000-0 -24875-5 0  9993,2 51810  53.2153 185.1088 0001180  92.5471 267.5656 15.08834696 71549,6917.897,95.438,540.578,538.945,0.0
51810.0,STARLINK-3613,PAYLOAD,2023-06-03 18:33:50,15.08835127,0.0001222,53.2157,183.029,91.5759,268.5373,9.8717e-06,-1.31e-06,0.0,0 STARLINK-3613,1 51810U 22017AU  23154.77350191 -.00000131  00000-0  98717-5 0  9998,2 51810  53.2157 183.0290 0001222  91.5759 268.5373 15.08835127 71615,6917.895,95.438,540.606,538.915,0.0
51810.0,STARLINK-3613,PAYLOAD,2023-06-04 08:52:18,15.08835668,0.000117,53.2155,180.3523,89.2718,270.8408,3.2418e-05,2.28e-06,0.0,0 STARLINK-3613,1 51810U 22017AU  23155.36966225  .00000228  00000-0  32418-4 0  9996,2 51810  53.2155 180.3523 0001170  89.2718 270.8408 15.08835668 71821,6917.894,95.438,540.568,538.949,0.0
51810.0,STARLINK-3613,PAYLOAD,2023-06-04 18:24:37,15.08835386,0.0001151,53.2155,178.5682,88.6114,271.501,4.2019e-05,3.81e-06,0.0,0 STARLINK-3613,1 51810U 22017AU  23155.76710292  .00000381  00000-0  42019-4 0  9999,2 51810  53.2155 178.5682 0001151  88.6114 271.5010 15.08835386 71765,6917.894,95.438,540.556,538.963,0.0
51810.0,STARLINK-3613,PAYLOAD,2023-06-05 10:18:28,15.08837931,0.000114,53.2154,175.5944,87.9423,272.17,5.1471e-05,5.31e-06,0.0,0 STARLINK-3613,1 51810U 22017AU  23156.42950223  .00000531  00000-0  51471-4 0  9992,2 51810  53.2154 175.5944 0001140  87.9423 272.1700 15.08837931 71980,6917.887,95.438,540.54,538.963,0.0
51810.0,STARLINK-3613,PAYLOAD,2023-06-05 18:15:24,15.08836342,0.000117,53.2155,174.107,85.2983,274.8142,3.1103e-05,2.07e-06,0.0,0 STARLINK-3613,1 51810U 22017AU  23156.76070453  .00000207  00000-0  31103-4 0  9997,2 51810  53.2155 174.1070 0001170  85.2983 274.8142 15.08836342 71918,6917.892,95.438,540.566,538.947,0.0
51810.0,STARLINK-3613,PAYLOAD,2023-06-06 08:33:53,15.08837065,0.0001183,53.2158,171.4309,85.7523,274.3604,2.5211e-05,1.13e-06,0.0,0 STARLINK-3613,1 51810U 22017AU  23157.35686538  .00000113  00000-0  25211-4 0  9999,2 51810  53.2158 171.4309 0001183  85.7523 274.3604 15.08837065 72007,6917.889,95.438,540.573,538.936,0.0
51810.0,STARLINK-3613,PAYLOAD,2023-06-06 18:06:11,15.0883838,0.0001157,53.216,169.6471,86.65,273.4624,2.8359e-05,1.64e-06,0.0,0 STARLINK-3613,1 51810U 22017AU  23157.75430495  .00000164  00000-0  28359-4 0  9994,2 51810  53.2160 169.6471 0001157  86.6500 273.4624 15.08838380 72187,6917.885,95.438,540.551,538.95,0.0
51810.0,STARLINK-3613,PAYLOAD,2023-06-07 10:00:03,15.08841087,0.0001152,53.2159,166.6734,86.4256,273.6867,3.3818e-05,2.5e-06,0.0,0 STARLINK-3613,1 51810U 22017AU  23158.41670309  .00000250  00000-0  33818-4 0  9990,2 51810  53.2159 166.6734 0001152  86.4256 273.6867 15.08841087 72162,6917.877,95.437,540.539,538.945,0.0
51810.0,STARLINK-3613,PAYLOAD,2023-06-07 17:56:58,15.08839554,0.0001158,53.216,165.1867,85.6306,274.4818,2.9244e-05,1.78e-06,0.0,0 STARLINK-3613,1 51810U 22017AU  23158.74790410  .00000178  00000-0  29244-4 0  9999,2 51810  53.2160 165.1867 0001158  85.6306 274.4818 15.08839554 72215,6917.882,95.438,540.548,538.946,0.0
51810.0,STARLINK-3613,PAYLOAD,2023-06-08 09:50:50,15.08841137,0.0001139,53.216,162.2125,87.1088,273.0034,5.0063e-05,5.09e-06,0.0,0 STARLINK-3613,1 51810U 22017AU  23159.41030214  .00000509  00000-0  50063-4 0  9994,2 51810  53.2160 162.2125 0001139  87.1088 273.0034 15.08841137 72432,6917.877,95.437,540.53,538.954,0.0
51810.0,STARLINK-3613,PAYLOAD,2023-06-09 09:41:37,15.08840756,0.0001155,53.216,157.7516,88.9725,271.14,2.1963e-05,6.2e-07,0.0,0 STARLINK-3613,1 51810U 22017AU  23160.40390276  .00000062  00000-0  21963-4 0  9993,2 51810  53.2160 157.7516 0001155  88.9725 271.1400 15.08840756 72465,6917.878,95.438,540.542,538.944,0.0
51810.0,STARLINK-3613,PAYLOAD,2023-06-10 00:00:05,15.08838397,0.0001173,53.2159,155.0752,89.8985,270.2141,-4.1308e-06,-3.54e-06,0.0,0 STARLINK-3613,1 51810U 22017AU  23161.00006524 -.00000354  00000-0 -41308-5 0  9992,2 51810  53.2159 155.0752 0001173  89.8985 270.2141 15.08838397 72677,6917.885,95.438,540.562,538.939,0.0
